start=new Date('2022-08-10T00:00:00.000Z').valueOf();
sats=[{"SEMIMAJOR_AXIS":"6917.978","ARG_OF_PERICENTER":"86.1011","OBJECT_NAME":"STARLINK-3601","MEAN_ELEMENT_THEORY":"SGP4","MEAN_MOTION":"15.08807997","TLE_LINE1":"1 51804U 22017AN  22221.91667824 -.00002138  00000-0 -11639-3 0  9991","NORAD_CAT_ID":"51804","EPOCH":"2022-08-09T22:00:00.999936","ELEMENT_SET_NO":"999","LAUNCH_DATE":"2022-02-25","TLE_LINE2":"2 51804  53.2180  79.9336 0001296  86.1011 308.9576 15.08807997  1307","SITE":"AFWTR","RCS_SIZE":"LARGE","REV_AT_EPOCH":"130","INCLINATION":"53.2180","MEAN_MOTION_DOT":"-0.00002138","TIME_SYSTEM":"UTC","CLASSIFICATION_TYPE":"U","GP_ID":"209931372","OBJECT_ID":"2022-017AN","COUNTRY_CODE":"US","EPHEMERIS_TYPE":"0","FILE":"3533123","RA_OF_ASC_NODE":"79.9336","CENTER_NAME":"EARTH","ECCENTRICITY":"0.00012960","MEAN_MOTION_DDOT":"0.0000000000000","BSTAR":"-0.00011639000000","MEAN_ANOMALY":"308.9576","PERIAPSIS":"538.947","APOAPSIS":"540.740","REF_FRAME":"TEME","DECAY_DATE":null,"OBJECT_TYPE":"PAYLOAD","PERIOD":"95.440"},{"INCLINATION":"53.2163","REV_AT_EPOCH":"2681","RCS_SIZE":"LARGE","SITE":"AFWTR","TIME_SYSTEM":"UTC","MEAN_MOTION_DOT":"-0.00048535","MEAN_ELEMENT_THEORY":"SGP4","MEAN_MOTION":"15.08837264","OBJECT_NAME":"STARLINK-3605","ARG_OF_PERICENTER":"59.7195","SEMIMAJOR_AXIS":"6917.889","TLE_LINE2":"2 51805  53.2163  79.9394 0001704  59.7195 355.3309 15.08837264 26819","LAUNCH_DATE":"2022-02-25","ELEMENT_SET_NO":"999","EPOCH":"2022-08-09T22:00:00.999936","NORAD_CAT_ID":"51805","TLE_LINE1":"1 51805U 22017AP  22221.91667824 -.00048535  00000-0 -30523-2 0  9995","REF_FRAME":"TEME","APOAPSIS":"540.933","PERIAPSIS":"538.575","MEAN_ANOMALY":"355.3309","BSTAR":"-0.00305230000000","MEAN_MOTION_DDOT":"0.0000000000000","PERIOD":"95.438","OBJECT_TYPE":"PAYLOAD","DECAY_DATE":null,"FILE":"3532925","COUNTRY_CODE":"US","OBJECT_ID":"2022-017AP","EPHEMERIS_TYPE":"0","CLASSIFICATION_TYPE":"U","GP_ID":"209902802","ECCENTRICITY":"0.00017040","CENTER_NAME":"EARTH","RA_OF_ASC_NODE":"79.9394"},{"COUNTRY_CODE":"US","OBJECT_ID":"2022-017AQ","EPHEMERIS_TYPE":"0","CLASSIFICATION_TYPE":"U","GP_ID":"209929870","FILE":"3533123","RA_OF_ASC_NODE":"89.9548","CENTER_NAME":"EARTH","ECCENTRICITY":"0.00022340","BSTAR":"-0.00032421000000","MEAN_ANOMALY":"279.4952","MEAN_MOTION_DDOT":"0.0000000000000","APOAPSIS":"541.361","REF_FRAME":"TEME","PERIAPSIS":"538.270","OBJECT_TYPE":"PAYLOAD","DECAY_DATE":null,"PERIOD":"95.439","SEMIMAJOR_AXIS":"6917.950","OBJECT_NAME":"STARLINK-3581","MEAN_MOTION":"15.08817207","MEAN_ELEMENT_THEORY":"SGP4","ARG_OF_PERICENTER":"60.5553","TLE_LINE1":"1 51806U 22017AQ  22221.91667824 -.00005441  00000-0 -32421-3 0  9995","NORAD_CAT_ID":"51806","EPOCH":"2022-08-09T22:00:00.999936","LAUNCH_DATE":"2022-02-25","ELEMENT_SET_NO":"999","TLE_LINE2":"2 51806  53.2179  89.9548 0002234  60.5553 279.4952 15.08817207  1308","RCS_SIZE":"LARGE","SITE":"AFWTR","INCLINATION":"53.2179","REV_AT_EPOCH":"130","TIME_SYSTEM":"UTC","MEAN_MOTION_DOT":"-0.00005441"},{"OBJECT_TYPE":"PAYLOAD","DECAY_DATE":null,"PERIOD":"95.439","MEAN_ANOMALY":"242.2782","BSTAR":"-0.00018805000000","MEAN_MOTION_DDOT":"0.0000000000000","REF_FRAME":"TEME","APOAPSIS":"541.108","PERIAPSIS":"538.478","RA_OF_ASC_NODE":"89.9557","ECCENTRICITY":"0.00019010","CENTER_NAME":"EARTH","COUNTRY_CODE":"US","OBJECT_ID":"2022-017AR","EPHEMERIS_TYPE":"0","GP_ID":"209902817","CLASSIFICATION_TYPE":"U","FILE":"3532929","TIME_SYSTEM":"UTC","MEAN_MOTION_DOT":"-0.00003278","RCS_SIZE":"LARGE","SITE":"AFWTR","INCLINATION":"53.2182","REV_AT_EPOCH":"2667","EPOCH":"2022-08-09T22:00:00.999936","TLE_LINE1":"1 51807U 22017AR  22221.91667824 -.00003278  00000-0 -18805-3 0  9992","NORAD_CAT_ID":"51807","TLE_LINE2":"2 51807  53.2182  89.9557 0001901  57.7763 242.2782 15.08824473 26673","LAUNCH_DATE":"2022-02-25","ELEMENT_SET_NO":"999","SEMIMAJOR_AXIS":"6917.928","MEAN_MOTION":"15.08824473","MEAN_ELEMENT_THEORY":"SGP4","OBJECT_NAME":"STARLINK-3606","ARG_OF_PERICENTER":"57.7763"},{"RA_OF_ASC_NODE":"89.9549","CENTER_NAME":"EARTH","ECCENTRICITY":"0.00019270","EPHEMERIS_TYPE":"0","COUNTRY_CODE":"US","OBJECT_ID":"2022-017AS","GP_ID":"209902833","CLASSIFICATION_TYPE":"U","FILE":"3532926","OBJECT_TYPE":"PAYLOAD","DECAY_DATE":null,"PERIOD":"95.439","BSTAR":"-0.00041449000000","MEAN_ANOMALY":"316.5324","MEAN_MOTION_DDOT":"0.0000000000000","APOAPSIS":"541.164","REF_FRAME":"TEME","PERIAPSIS":"538.498","NORAD_CAT_ID":"51808","TLE_LINE1":"1 51808U 22017AS  22221.91667824 -.00006874  00000-0 -41449-3 0  9998","EPOCH":"2022-08-09T22:00:00.999936","ELEMENT_SET_NO":"999","LAUNCH_DATE":"2022-02-25","TLE_LINE2":"2 51808  53.2184  89.9549 0001927  63.5258 316.5324 15.08811906 26639","SEMIMAJOR_AXIS":"6917.966","OBJECT_NAME":"STARLINK-3609","MEAN_MOTION":"15.08811906","MEAN_ELEMENT_THEORY":"SGP4","ARG_OF_PERICENTER":"63.5258","TIME_SYSTEM":"UTC","MEAN_MOTION_DOT":"-0.00006874","RCS_SIZE":"LARGE","SITE":"AFWTR","INCLINATION":"53.2184","REV_AT_EPOCH":"2663"},{"SITE":"AFWTR","RCS_SIZE":"LARGE","REV_AT_EPOCH":"130","INCLINATION":"53.2177","MEAN_MOTION_DOT":"-0.00004322","TIME_SYSTEM":"UTC","SEMIMAJOR_AXIS":"6917.949","ARG_OF_PERICENTER":"60.7226","OBJECT_NAME":"STARLINK-3607","MEAN_MOTION":"15.08817617","MEAN_ELEMENT_THEORY":"SGP4","TLE_LINE1":"1 51809U 22017AT  22221.91667824 -.00004322  00000-0 -25377-3 0  9997","NORAD_CAT_ID":"51809","EPOCH":"2022-08-09T22:00:00.999936","LAUNCH_DATE":"2022-02-25","ELEMENT_SET_NO":"999","TLE_LINE2":"2 51809  53.2177  89.9526 0002189  60.7226 259.3200 15.08817617  1301","MEAN_MOTION_DDOT":"0.0000000000000","BSTAR":"-0.00025377000000","MEAN_ANOMALY":"259.3200","PERIAPSIS":"538.299","APOAPSIS":"541.328","REF_FRAME":"TEME","DECAY_DATE":null,"OBJECT_TYPE":"PAYLOAD","PERIOD":"95.439","GP_ID":"209931117","CLASSIFICATION_TYPE":"U","OBJECT_ID":"2022-017AT","COUNTRY_CODE":"US","EPHEMERIS_TYPE":"0","FILE":"3533123","RA_OF_ASC_NODE":"89.9526","CENTER_NAME":"EARTH","ECCENTRICITY":"0.00021890"},{"EPOCH":"2022-08-09T22:00:00.999936","NORAD_CAT_ID":"51810","TLE_LINE1":"1 51810U 22017AU  22221.91667824 -.00036824  00000-0 -23080-2 0  9999","TLE_LINE2":"2 51810  53.2174  79.9331 0001425  88.2794 161.5601 15.08832310 26774","ELEMENT_SET_NO":"999","LAUNCH_DATE":"2022-02-25","SEMIMAJOR_AXIS":"6917.904","ARG_OF_PERICENTER":"88.2794","MEAN_MOTION":"15.08832310","MEAN_ELEMENT_THEORY":"SGP4","OBJECT_NAME":"STARLINK-3613","MEAN_MOTION_DOT":"-0.00036824","TIME_SYSTEM":"UTC","SITE":"AFWTR","RCS_SIZE":"LARGE","REV_AT_EPOCH":"2677","INCLINATION":"53.2174","RA_OF_ASC_NODE":"79.9331","ECCENTRICITY":"0.00014250","CENTER_NAME":"EARTH","CLASSIFICATION_TYPE":"U","GP_ID":"209902625","COUNTRY_CODE":"US","EPHEMERIS_TYPE":"0","OBJECT_ID":"2022-017AU","FILE":"3532926","DECAY_DATE":null,"OBJECT_TYPE":"PAYLOAD","PERIOD":"95.438","MEAN_MOTION_DDOT":"0.0000000000000","MEAN_ANOMALY":"161.5601","BSTAR":"-0.00230800000000","PERIAPSIS":"538.783","REF_FRAME":"TEME","APOAPSIS":"540.755"},{"COUNTRY_CODE":"US","EPHEMERIS_TYPE":"0","OBJECT_ID":"2022-017AV","CLASSIFICATION_TYPE":"U","GP_ID":"209930621","FILE":"3533123","RA_OF_ASC_NODE":"89.9525","ECCENTRICITY":"0.00021030","CENTER_NAME":"EARTH","MEAN_ANOMALY":"294.2182","BSTAR":"-0.00331320000000","MEAN_MOTION_DDOT":"0.0000000000000","REF_FRAME":"TEME","APOAPSIS":"541.263","PERIAPSIS":"538.353","OBJECT_TYPE":"PAYLOAD","DECAY_DATE":null,"PERIOD":"95.439","SEMIMAJOR_AXIS":"6917.943","MEAN_MOTION":"15.08819607","MEAN_ELEMENT_THEORY":"SGP4","OBJECT_NAME":"STARLINK-3569","ARG_OF_PERICENTER":"65.8480","EPOCH":"2022-08-09T22:00:00.999936","NORAD_CAT_ID":"51811","TLE_LINE1":"1 51811U 22017AV  22221.91667824 -.00052605  00000-0 -33132-2 0  9994","TLE_LINE2":"2 51811  53.2175  89.9525 0002103  65.8480 294.2182 15.08819607  1303","LAUNCH_DATE":"2022-02-25","ELEMENT_SET_NO":"999","RCS_SIZE":"LARGE","SITE":"AFWTR","INCLINATION":"53.2175","REV_AT_EPOCH":"130","TIME_SYSTEM":"UTC","MEAN_MOTION_DOT":"-0.00052605"},{"FILE":"3533123","GP_ID":"209931373","CLASSIFICATION_TYPE":"U","COUNTRY_CODE":"US","OBJECT_ID":"2022-017AW","EPHEMERIS_TYPE":"0","CENTER_NAME":"EARTH","ECCENTRICITY":"0.00012590","RA_OF_ASC_NODE":"79.9306","PERIAPSIS":"538.974","APOAPSIS":"540.716","REF_FRAME":"TEME","MEAN_MOTION_DDOT":"0.0000000000000","BSTAR":"0.00035434000000","MEAN_ANOMALY":"235.0975","PERIOD":"95.440","DECAY_DATE":null,"OBJECT_TYPE":"PAYLOAD","ARG_OF_PERICENTER":"79.9517","OBJECT_NAME":"STARLINK-3610","MEAN_MOTION":"15.08807426","MEAN_ELEMENT_THEORY":"SGP4","SEMIMAJOR_AXIS":"6917.980","LAUNCH_DATE":"2022-02-25","ELEMENT_SET_NO":"999","TLE_LINE2":"2 51812  53.2169  79.9306 0001259  79.9517 235.0975 15.08807426  1300","NORAD_CAT_ID":"51812","TLE_LINE1":"1 51812U 22017AW  22221.91667824  .00005351  00000-0  35434-3 0  9997","EPOCH":"2022-08-09T22:00:00.999936","REV_AT_EPOCH":"130","INCLINATION":"53.2169","SITE":"AFWTR","RCS_SIZE":"LARGE","MEAN_MOTION_DOT":"0.00005351","TIME_SYSTEM":"UTC"},{"TLE_LINE2":"2 51813  53.2172  79.9406 0001626  63.9113   5.9388 15.08814523 26764","LAUNCH_DATE":"2022-02-25","ELEMENT_SET_NO":"999","EPOCH":"2022-08-09T22:00:00.999936","NORAD_CAT_ID":"51813","TLE_LINE1":"1 51813U 22017AX  22221.91667824 -.00002563  00000-0 -14311-3 0  9993","MEAN_MOTION":"15.08814523","MEAN_ELEMENT_THEORY":"SGP4","OBJECT_NAME":"STARLINK-3552","ARG_OF_PERICENTER":"63.9113","SEMIMAJOR_AXIS":"6917.958","TIME_SYSTEM":"UTC","MEAN_MOTION_DOT":"-0.00002563","INCLINATION":"53.2172","REV_AT_EPOCH":"2676","RCS_SIZE":"LARGE","SITE":"AFWTR","ECCENTRICITY":"0.00016260","CENTER_NAME":"EARTH","RA_OF_ASC_NODE":"79.9406","FILE":"3532933","EPHEMERIS_TYPE":"0","COUNTRY_CODE":"US","OBJECT_ID":"2022-017AX","GP_ID":"209902704","CLASSIFICATION_TYPE":"U","PERIOD":"95.439","OBJECT_TYPE":"PAYLOAD","DECAY_DATE":null,"REF_FRAME":"TEME","APOAPSIS":"540.948","PERIAPSIS":"538.698","MEAN_ANOMALY":"5.9388","BSTAR":"-0.00014311000000","MEAN_MOTION_DDOT":"0.0000000000000"}];
